ONEWEB-0056             
1 45159U 20008AE  25137.91358713  .00000445  00000+0  12383-2 0  9990
2 45159  87.8801 115.0744 0002038  83.4508 276.6851 13.10374676256412
ONEWEB-0057             
1 45160U 20008AF  25137.69197738  .00000668  00000+0  18762-2 0  9999
2 45160  87.8801 115.1304 0002100  80.9220 279.2144 13.10375864256559
ONEWEB-0058             
1 45161U 20008AG  25137.67882740  .00000265  00000+0  72320-3 0  9996
2 45161  87.8799 115.1481 0001899  87.0184 273.1161 13.10376848256626
ONEWEB-0059             
1 45162U 20008AH  25137.90444534  .00000025  00000+0  35972-4 0  9995
2 45162  87.8804 115.0985 0001944  87.7837 272.3512 13.10376234256557
ONEWEB-0062             
1 45163U 20008AJ  25138.23561167  .00000667  00000+0  18733-2 0  9991
2 45163  87.8799 115.0135 0002123  95.5478 264.5892 13.10373740257213
ONEWEB-0065             
1 45164U 20008AK  25137.68036001  .00000179  00000+0  47645-3 0  9997
2 45164  87.8807 115.1450 0002113  83.1147 277.0221 13.10376425256082
ONEWEB-0066             
1 45424U 20020A   25137.62423847 -.00000277  00000+0 -81692-3 0  9993
2 45424  87.8821  99.9059 0001729  76.6128 283.5193 13.11417381250834
ONEWEB-0067             
1 45425U 20020B   25137.58538058  .00000404  00000+0  11046-2 0  9995
2 45425  87.8805  99.8333 0001925  77.9417 282.1926 13.11415914250899
